CTC2_L_00098016-03
1 10062U 24100WI  26075.70041667  .00000000  00000+0  00000-0 0  9996
2 10062  50.0000 180.0000 0000000   0.0000   0.0000 14.60983543    19
CTC2_L_00098016-04
1 10063U 26654EU  26075.70041667  .00000000  00000+0  00000-0 0  9993
2 10063  50.0000 180.0000 0000000   0.0000  90.0000 14.60983543    19
CTC2_L_00098017-01
1 10064U 26641OI  26075.70041667  .00000000  00000+0  00000-0 0  9990
2 10064  50.0000 192.0000 0000000   0.0000 192.0000 14.60983543    16
CTC2_L_00098017-02
1 10065U 24964ZU  26075.70041667  .00000000  00000+0  00000-0 0  9997
2 10065  50.0000 192.0000 0000000   0.0000 282.0000 14.60983543    17
CTC2_L_00098017-03
1 10066U 25466BD  26075.70041667  .00000000  00000+0  00000-0 0  9996
2 10066  50.0000 192.0000 0000000   0.0000  12.0000 14.60983543    19
CTC2_L_00098017-04
1 10067U 25680LB  26075.70041667  .00000000  00000+0  00000-0 0  9995
2 10067  50.0000 192.0000 0000000   0.0000 102.0000 14.60983543    10
CTC2_L_00098018-01
1 10068U 24832HA  26075.70041667  .00000000  00000+0  00000-0 0  9994
2 10068  50.0000 204.0000 0000000   0.0000 204.0000 14.60983543    18
CTC2_L_00098018-02
1 10069U 24304FW  26075.70041667  .00000000  00000+0  00000-0 0  9999
2 10069  50.0000 204.0000 0000000   0.0000 294.0000 14.60983543    18
CTC2_L_00098018-03
1 10070U 23479NH  26075.70041667  .00000000  00000+0  00000-0 0  9993
2 10070  50.0000 204.0000 0000000   0.0000  24.0000 14.60983543    11
CTC2_L_00098018-04
1 10071U 25492SX  26075.70041667  .00000000  00000+0  00000-0 0  9991
2 10071  50.0000 204.0000 0000000   0.0000 114.0000 14.60983543    12
CTC2_L_00098019-01
1 10072U 24661AJ  26075.70041667  .00000000  00000+0  00000-0 0  9999
2 10072  50.0000 216.0000 0000000   0.0000 216.0000 14.60983543    19
CTC2_L_00098019-02
1 10073U 24156RW  26075.70041667  .00000000  00000+0  00000-0 0  9999
2 10073  50.0000 216.0000 0000000   0.0000 306.0000 14.60983543    10
CTC2_L_00098019-03
1 10074U 22032UW  26075.70041667  .00000000  00000+0  00000-0 0  9991
2 10074  50.0000 216.0000 0000000   0.0000  36.0000 14.60983543    11
CTC2_L_00098019-04
1 10075U 24159GE  26075.70041667  .00000000  00000+0  00000-0 0  9994
2 10075  50.0000 216.0000 0000000   0.0000 126.0000 14.60983543    12
CTC2_L_00098020-01
1 10076U 22426TS  26075.70041667  .00000000  00000+0  00000-0 0  9990
2 10076  50.0000 228.0000 0000000   0.0000 228.0000 14.60983543    19
CTC2_L_00098020-02
1 10077U 24486IB  26075.70041667  .00000000  00000+0  00000-0 0  9999
2 10077  50.0000 228.0000 0000000   0.0000 318.0000 14.60983543    10
CTC2_L_00098020-03
1 10078U 22606AP  26075.70041667  .00000000  00000+0  00000-0 0  9992
2 10078  50.0000 228.0000 0000000   0.0000  48.0000 14.60983543    11
CTC2_L_00098020-04
1 10079U 24672HO  26075.70041667  .00000000  00000+0  00000-0 0  9998
2 10079  50.0000 228.0000 0000000   0.0000 138.0000 14.60983543    12
CTC2_L_00098021-01
1 10080U 26582GL  26075.70041667  .00000000  00000+0  00000-0 0  9992
2 10080  50.0000 240.0000 0000000   0.0000 240.0000 14.60983543    12
CTC2_L_00098021-02
1 10081U 26093OC  26075.70041667  .00000000  00000+0  00000-0 0  9990
2 10081  50.0000 240.0000 0000000   0.0000 330.0000 14.60983543    13
CTC2_L_00098021-03
1 10082U 25064WW  26075.70041667  .00000000  00000+0  00000-0 0  9998
2 10082  50.0000 240.0000 0000000   0.0000  60.0000 14.60983543    14
CTC2_L_00098021-04
1 10083U 24199EO  26075.70041667  .00000000  00000+0  00000-0 0  9997
2 10083  50.0000 240.0000 0000000   0.0000 150.0000 14.60983543    15
CTC2_L_00098022-01
1 10084U 25824HF  26075.70041667  .00000000  00000+0  00000-0 0  9994
2 10084  50.0000 252.0000 0000000   0.0000 252.0000 14.60983543    12
CTC2_L_00098022-02
1 10085U 23453FC  26075.70041667  .00000000  00000+0  00000-0 0  9991
2 10085  50.0000 252.0000 0000000   0.0000 342.0000 14.60983543    13
CTC2_L_00098022-03
1 10086U 24283RG  26075.70041667  .00000000  00000+0  00000-0 0  9994
2 10086  50.0000 252.0000 0000000   0.0000  72.0000 14.60983543    14
CTC2_L_00098022-04
1 10087U 23644ID  26075.70041667  .00000000  00000+0  00000-0 0  9995
2 10087  50.0000 252.0000 0000000   0.0000 162.0000 14.60983543    15
CTC2_L_00098023-01
1 10088U 22802RV  26075.70041667  .00000000  00000+0  00000-0 0  9991
2 10088  50.0000 264.0000 0000000   0.0000 264.0000 14.60983543    12
CTC2_L_00098023-02
1 10089U 22673CZ  26075.70041667  .00000000  00000+0  00000-0 0  9998
2 10089  50.0000 264.0000 0000000   0.0000 354.0000 14.60983543    13
CTC2_L_00098023-03
1 10090U 23610XB  26075.70041667  .00000000  00000+0  00000-0 0  9992
2 10090  50.0000 264.0000 0000000   0.0000  84.0000 14.60983543    15
CTC2_L_00098023-04
1 10091U 22721VX  26075.70041667  .00000000  00000+0  00000-0 0  9995
2 10091  50.0000 264.0000 0000000   0.0000 174.0000 14.60983543    16
CTC2_L_00098024-01
1 10092U 23420QL  26075.70041667  .00000000  00000+0  00000-0 0  9993
2 10092  50.0000 276.0000 0000000   0.0000 276.0000 14.60983543    13
CTC2_L_00098024-02
1 10093U 24184MJ  26075.70041667  .00000000  00000+0  00000-0 0  9992
2 10093  50.0000 276.0000 0000000   0.0000   6.0000 14.60983543    15
CTC2_L_00098024-03
1 10094U 23654ZL  26075.70041667  .00000000  00000+0  00000-0 0  9994
2 10094  50.0000 276.0000 0000000   0.0000  96.0000 14.60983543    15
CTC2_L_00098024-04
1 10095U 23150MJ  26075.70041667  .00000000  00000+0  00000-0 0  9996
2 10095  50.0000 276.0000 0000000   0.0000 186.0000 14.60983543    16
CTC2_L_00098025-01
1 10096U 23944RS  26075.70041667  .00000000  00000+0  00000-0 0  9998
2 10096  50.0000 288.0000 0000000   0.0000 288.0000 14.60983543    13
CTC2_L_00098025-02
1 10097U 23121VI  26075.70041667  .00000000  00000+0  00000-0 0  9996
2 10097  50.0000 288.0000 0000000   0.0000  18.0000 14.60983543    15
CTC2_L_00098025-03
1 10098U 24647HN  26075.70041667  .00000000  00000+0  00000-0 0  9991
2 10098  50.0000 288.0000 0000000   0.0000 108.0000 14.60983543    16
CTC2_L_00098025-04
1 10099U 23237DT  26075.70041667  .00000000  00000+0  00000-0 0  9996
2 10099  50.0000 288.0000 0000000   0.0000 198.0000 14.60983543    16
CTC2_L_00098026-01
1 10100U 24253AT  26075.70041667  .00000000  00000+0  00000-0 0  9998
2 10100  50.0000 300.0000 0000000   0.0000 300.0000 14.60983543    19
CTC2_L_00098026-02
1 10101U 23373NR  26075.70041667  .00000000  00000+0  00000-0 0  9991
2 10101  50.0000 300.0000 0000000   0.0000  30.0000 14.60983543    10
CTC2_L_00098026-03
1 10102U 22113GA  26075.70041667  .00000000  00000+0  00000-0 0  9993
2 10102  50.0000 300.0000 0000000   0.0000 120.0000 14.60983543    11
CTC2_L_00098026-04
1 10103U 23671QB  26075.70041667  .00000000  00000+0  00000-0 0  9994
2 10103  50.0000 300.0000 0000000   0.0000 210.0000 14.60983543    12
CTC2_L_00098027-01
1 10104U 24835QA  26075.70041667  .00000000  00000+0  00000-0 0  9998
2 10104  50.0000 312.0000 0000000   0.0000 312.0000 14.60983543    19
CTC2_L_00098027-02
1 10105U 24305TJ  26075.70041667  .00000000  00000+0  00000-0 0  9991
2 10105  50.0000 312.0000 0000000   0.0000  42.0000 14.60983543    10
CTC2_L_00098027-03
1 10106U 25219WJ  26075.70041667  .00000000  00000+0  00000-0 0  9997
2 10106  50.0000 312.0000 0000000   0.0000 132.0000 14.60983543    11
CTC2_L_00098027-04
1 10107U 24944IP  26075.70041667  .00000000  00000+0  00000-0 0  9992
2 10107  50.0000 312.0000 0000000   0.0000 222.0000 14.60983543    12
CTC2_L_00098028-01
1 10108U 24324FO  26075.70041667  .00000000  00000+0  00000-0 0  9995
2 10108  50.0000 324.0000 0000000   0.0000 324.0000 14.60983543    19
CTC2_L_00098028-02
1 10109U 26359WS  26075.70041667  .00000000  00000+0  00000-0 0  9996
2 10109  50.0000 324.0000 0000000   0.0000  54.0000 14.60983543    10
CTC2_L_00098028-03
1 10110U 22159CM  26075.70041667  .00000000  00000+0  00000-0 0  9992
2 10110  50.0000 324.0000 0000000   0.0000 144.0000 14.60983543    12
CTC2_L_00098028-04
1 10111U 26682JC  26075.70041667  .00000000  00000+0  00000-0 0  9998
2 10111  50.0000 324.0000 0000000   0.0000 234.0000 14.60983543    13
CTC2_L_00098029-01
1 10112U 22206QS  26075.70041667  .00000000  00000+0  00000-0 0  9997
2 10112  50.0000 336.0000 0000000   0.0000 336.0000 14.60983543    10
CTC2_L_00098029-02
1 10113U 22951TJ  26075.70041667  .00000000  00000+0  00000-0 0  9995
2 10113  50.0000 336.0000 0000000   0.0000  66.0000 14.60983543    11
CTC2_L_00098029-03
1 10114U 26806EJ  26075.70041667  .00000000  00000+0  00000-0 0  9999
2 10114  50.0000 336.0000 0000000   0.0000 156.0000 14.60983543    12
CTC2_L_00098029-04
1 10115U 22004NX  26075.70041667  .00000000  00000+0  00000-0 0  9996
2 10115  50.0000 336.0000 0000000   0.0000 246.0000 14.60983543    13
CTC2_L_00098030-01
1 10116U 26541AN  26075.70041667  .00000000  00000+0  00000-0 0  9997
2 10116  50.0000 348.0000 0000000   0.0000 348.0000 14.60983543    10
CTC2_L_00098030-02
1 10117U 25709OJ  26075.70041667  .00000000  00000+0  00000-0 0  9993
2 10117  50.0000 348.0000 0000000   0.0000  78.0000 14.60983543    11
CTC2_L_00098030-03
1 10118U 22832BO  26075.70041667  .00000000  00000+0  00000-0 0  9998
2 10118  50.0000 348.0000 0000000   0.0000 168.0000 14.60983543    12
CTC2_L_00098030-04
1 10119U 24747DA  26075.70041667  .00000000  00000+0  00000-0 0  9996
2 10119  50.0000 348.0000 0000000   0.0000 258.0000 14.60983543    13
